NORAD_CAT_ID,OBJECT_NAME,OBJECT_TYPE,EPOCH,MEAN_MOTION,ECCENTRICITY,INCLINATION,RA_OF_ASC_NODE,ARG_OF_PERICENTER,MEAN_ANOMALY,BSTAR,MEAN_MOTION_DOT,MEAN_MOTION_DDOT,TLE_LINE0,TLE_LINE1,TLE_LINE2,SEMIMAJOR_AXIS,PERIOD,APOGEE,PERIGEE,DECAYED
53151.0,STARLINK-4040,PAYLOAD,2023-01-28 14:02:03,15.08840446,0.0001035,53.216,224.2886,90.6174,269.4937,9.9301e-05,1.293e-05,0.0,0 STARLINK-4040,1 53151U 22083V   23028.58475942  .00001293  00000-0  99301-4 0  9990,2 53151  53.2160 224.2886 0001035  90.6174 269.4937 15.08840446 29845,6917.879,95.438,540.46,539.028,0.0
53151.0,STARLINK-4040,PAYLOAD,2023-01-28 20:23:35,15.08844112,0.0001027,53.2161,223.0992,90.2123,269.8987,0.00010683,1.413e-05,0.0,0 STARLINK-4040,1 53151U 22083V   23028.84971651  .00001413  00000-0  10683-3 0  9996,2 53151  53.2161 223.0992 0001027  90.2123 269.8987 15.08844112 29889,6917.868,95.437,540.443,539.022,0.0
53151.0,STARLINK-4040,PAYLOAD,2023-01-28 21:58:58,15.08844552,0.0001029,53.2161,222.8018,89.8358,270.2752,0.00010798,1.431e-05,0.0,0 STARLINK-4040,1 53151U 22083V   23028.91595605  .00001431  00000-0  10798-3 0  9992,2 53151  53.2161 222.8018 0001029  89.8358 270.2752 15.08844552 30528,6917.866,95.437,540.443,539.02,0.0
53151.0,STARLINK-4040,PAYLOAD,2023-01-29 12:17:27,15.08833831,0.0001039,53.2161,220.1254,86.3003,273.8108,6.9824e-05,8.23e-06,0.0,0 STARLINK-4040,1 53151U 22083V   23029.51212423  .00000823  00000-0  69824-4 0  9992,2 53151  53.2161 220.1254 0001039  86.3003 273.8108 15.08833831 30613,6917.899,95.438,540.483,539.045,0.0
53151.0,STARLINK-4040,PAYLOAD,2023-01-29 21:49:46,15.08836884,0.0001063,53.2164,218.3412,84.1859,275.9254,5.6375e-05,6.09e-06,0.0,0 STARLINK-4040,1 53151U 22083V   23029.90956361  .00000609  00000-0  56375-4 0  9990,2 53151  53.2164 218.3412 0001063  84.1859 275.9254 15.08836884 30046,6917.89,95.438,540.49,539.02,0.0
53151.0,STARLINK-4040,PAYLOAD,2023-01-30 12:08:14,15.0884164,0.0001083,53.2166,215.6649,83.5088,276.6027,7.9413e-05,9.76e-06,0.0,0 STARLINK-4040,1 53151U 22083V   23030.50572017  .00000976  00000-0  79413-4 0  9995,2 53151  53.2166 215.6649 0001083  83.5088 276.6027 15.08841640 30760,6917.875,95.437,540.49,538.991,0.0
53151.0,STARLINK-4040,PAYLOAD,2023-01-31 05:37:28,15.08844992,0.0001097,53.217,212.3944,80.1351,279.9765,8.9579e-05,1.138e-05,0.0,0 STARLINK-4040,1 53151U 22083V   23031.23435642  .00001138  00000-0  89579-4 0  9993,2 53151  53.2170 212.3944 0001097  80.1351 279.9765 15.08844992 30249,6917.865,95.437,540.489,538.971,0.0
53151.0,STARLINK-4040,PAYLOAD,2023-01-31 18:20:33,15.08836859,9.91e-05,53.2161,210.0149,83.2624,276.8481,8.658e-05,1.09e-05,0.0,0 STARLINK-4040,1 53151U 22083V   23031.76428132  .00001090  00000-0  86580-4 0  9993,2 53151  53.2161 210.0149 0000991  83.2624 276.8481 15.08836859 30952,6917.89,95.438,540.441,539.069,0.0
53151.0,STARLINK-4040,PAYLOAD,2023-02-02 11:40:35,15.08836717,9.48e-05,53.2163,202.2839,79.7874,280.3225,5.6949e-05,6.19e-06,0.0,0 STARLINK-4040,1 53151U 22083V   23033.48652221  .00000619  00000-0  56949-4 0  9994,2 53151  53.2163 202.2839 0000948  79.7874 280.3225 15.08836717 30580,6917.89,95.438,540.411,539.1,0.0
53151.0,STARLINK-4040,PAYLOAD,2023-02-02 14:51:21,15.08835855,9.26e-05,53.2164,201.6895,77.3237,282.7859,4.8902e-05,4.91e-06,0.0,0 STARLINK-4040,1 53151U 22083V   23033.61900328  .00000491  00000-0  48902-4 0  9991,2 53151  53.2164 201.6895 0000926  77.3237 282.7859 15.08835855 31233,6917.893,95.438,540.399,539.117,0.0
53151.0,STARLINK-4040,PAYLOAD,2023-02-03 14:42:09,15.08834822,9.06e-05,53.2162,197.2295,88.0308,272.0788,5.5715e-05,5.99e-06,0.0,0 STARLINK-4040,1 53151U 22083V   23034.61260572  .00000599  00000-0  55715-4 0  9991,2 53151  53.2162 197.2295 0000906  88.0308 272.0788 15.08834822 30753,6917.896,95.438,540.388,539.134,0.0
53151.0,STARLINK-4040,PAYLOAD,2023-02-04 03:25:14,15.08838613,9.42e-05,53.2169,194.8486,90.2478,269.8622,7.2677e-05,8.69e-06,0.0,0 STARLINK-4040,1 53151U 22083V   23035.14252410  .00000869  00000-0  72677-4 0  9998,2 53151  53.2169 194.8486 0000942  90.2478 269.8622 15.08838613 31460,6917.885,95.438,540.401,539.098,0.0
53151.0,STARLINK-4040,PAYLOAD,2023-02-04 14:32:55,15.08842129,9.34e-05,53.2168,192.7682,96.0913,264.0186,7.4269e-05,8.95e-06,0.0,0 STARLINK-4040,1 53151U 22083V   23035.60620211  .00000895  00000-0  74269-4 0  9995,2 53151  53.2168 192.7682 0000934  96.0913 264.0186 15.08842129 30900,6917.874,95.437,540.385,539.093,0.0
53151.0,STARLINK-4040,PAYLOAD,2023-02-04 19:19:04,15.08846813,0.0001006,53.2162,191.8761,93.7387,266.372,7.6948e-05,9.37e-06,0.0,0 STARLINK-4040,1 53151U 22083V   23035.80491878  .00000937  00000-0  76948-4 0  9995,2 53151  53.2162 191.8761 0001006  93.7387 266.3720 15.08846813 30938,6917.86,95.437,540.421,539.029,0.0
53151.0,STARLINK-4040,PAYLOAD,2023-02-05 12:48:20,15.08835073,0.0001074,53.2167,188.6057,87.6736,272.4379,5.7346e-05,6.25e-06,0.0,0 STARLINK-4040,1 53151U 22083V   23036.53356905  .00000625  00000-0  57346-4 0  9992,2 53151  53.2167 188.6057 0001074  87.6736 272.4379 15.08835073 31676,6917.895,95.438,540.503,539.017,0.0
53151.0,STARLINK-4040,PAYLOAD,2023-02-05 14:23:43,15.08835601,0.0001088,53.2166,188.3082,87.9935,272.1182,6.4514e-05,7.39e-06,0.0,0 STARLINK-4040,1 53151U 22083V   23036.59980877  .00000739  00000-0  64514-4 0  9990,2 53151  53.2166 188.3082 0001088  87.9935 272.1182 15.08835601 31057,6917.894,95.438,540.512,539.006,0.0
53151.0,STARLINK-4040,PAYLOAD,2023-02-05 19:09:52,15.08842293,0.0001111,53.2167,187.4158,85.9623,274.1497,5.9826e-05,6.65e-06,0.0,0 STARLINK-4040,1 53151U 22083V   23036.79852474  .00000665  00000-0  59826-4 0  9991,2 53151  53.2167 187.4158 0001111  85.9623 274.1497 15.08842293 31080,6917.873,95.437,540.507,538.97,0.0
53151.0,STARLINK-4040,PAYLOAD,2023-02-06 09:28:21,15.0883643,0.0001089,53.2168,184.7399,85.1775,274.9342,5.626e-05,6.08e-06,0.0,0 STARLINK-4040,1 53151U 22083V   23037.39469023  .00000608  00000-0  56260-4 0  9998,2 53151  53.2168 184.7399 0001089  85.1775 274.9342 15.08836430 31175,6917.891,95.438,540.51,539.003,0.0
53151.0,STARLINK-4040,PAYLOAD,2023-02-06 19:00:39,15.08851672,0.0001108,53.2166,182.9554,82.8024,277.3094,0.00010752,1.424e-05,0.0,0 STARLINK-4040,1 53151U 22083V   23037.79211922  .00001424  00000-0  10752-3 0  9997,2 53151  53.2166 182.9554 0001108  82.8024 277.3094 15.08851672 31861,6917.845,95.437,540.476,538.943,0.0
53151.0,STARLINK-4040,PAYLOAD,2023-02-07 02:57:34,15.08846866,9.74e-05,53.2172,181.4678,97.8212,262.289,3.9525e-05,3.41e-06,0.0,0 STARLINK-4040,1 53151U 22083V   23038.12332161  .00000341  00000-0  39525-4 0  9991,2 53151  53.2172 181.4678 0000974  97.8212 262.2890 15.08846866 31916,6917.859,95.437,540.398,539.051,0.0
53151.0,STARLINK-4040,PAYLOAD,2023-02-07 14:05:16,15.08845874,0.0001203,53.217,179.3871,84.6345,275.4784,0.00013709,1.895e-05,0.0,0 STARLINK-4040,1 53151U 22083V   23038.58700112  .00001895  00000-0  13709-3 0  9996,2 53151  53.2170 179.3871 0001203  84.6345 275.4784 15.08845874 31356,6917.862,95.437,540.56,538.895,0.0
53151.0,STARLINK-4040,PAYLOAD,2023-02-07 20:26:48,15.08863013,0.0001004,53.2161,178.1979,82.2922,277.8184,0.00038319,5.82e-05,0.0,0 STARLINK-4040,1 53151U 22083V   23038.85195254  .00005820  00000-0  38319-3 0  9997,2 53151  53.2161 178.1979 0001004  82.2922 277.8184 15.08863013 31395,6917.81,95.436,540.37,538.981,0.0
53151.0,STARLINK-4040,PAYLOAD,2023-02-08 13:56:04,15.08839108,0.0001223,53.2149,174.928,83.9687,276.1445,3.7302e-05,3.06e-06,0.0,0 STARLINK-4040,1 53151U 22083V   23039.58060586  .00000306  00000-0  37302-4 0  9993,2 53151  53.2149 174.9280 0001223  83.9687 276.1445 15.08839108 31502,6917.883,95.438,540.594,538.902,0.0
53151.0,STARLINK-4040,PAYLOAD,2023-02-08 18:42:13,15.08852209,0.0001311,53.2185,174.0369,109.5025,250.6108,0.00018846,2.714e-05,0.0,0 STARLINK-4040,1 53151U 22083V   23039.77931860  .00002714  00000-0  18846-3 0  9992,2 53151  53.2185 174.0369 0001311 109.5025 250.6108 15.08852209 32163,6917.843,95.437,540.615,538.801,0.0
53151.0,STARLINK-4040,PAYLOAD,2023-02-09 18:32:57,15.08899353,0.000127,53.2174,169.5751,86.9223,273.1915,0.00091828,0.0001438,0.0,0 STARLINK-4040,1 53151U 22083V   23040.77289144  .00014380  00000-0  91828-3 0  9998,2 53151  53.2174 169.5751 0001270  86.9223 273.1915 15.08899353 32311,6917.699,95.434,540.443,538.685,0.0
53151.0,STARLINK-4040,PAYLOAD,2023-02-09 20:08:20,15.08902887,0.00011,53.2162,169.2746,89.1807,270.9311,0.001007,0.00015802,0.0,0 STARLINK-4040,1 53151U 22083V   23040.83912811  .00015802  00000-0  10070-2 0  9998,2 53151  53.2162 169.2746 0001100  89.1807 270.9311 15.08902887 31696,6917.688,95.434,540.314,538.792,0.0
53151.0,STARLINK-4040,PAYLOAD,2023-02-10 00:54:32,15.08807231,0.0001117,53.2167,168.3858,113.1089,247.0021,-0.00088601,-0.00014348,0.0,0 STARLINK-4040,1 53151U 22083V   23041.03788148 -.00014348  00000-0 -88601-3 0  9997,2 53151  53.2167 168.3858 0001117 113.1089 247.0021 15.08807231 32357,6917.981,95.44,540.618,539.073,0.0
53151.0,STARLINK-4040,PAYLOAD,2023-02-10 15:13:00,15.08829336,0.0001441,53.2172,165.7108,114.8454,245.2688,-0.00026516,-4.504e-05,0.0,0 STARLINK-4040,1 53151U 22083V   23041.63403633 -.00004504  00000-0 -26516-3 0  9996,2 53151  53.2172 165.7108 0001441 114.8454 245.2688 15.08829336 32445,6917.913,95.438,540.775,538.781,0.0
53151.0,STARLINK-4040,PAYLOAD,2023-02-10 19:59:10,15.0883657,0.000123,53.2166,164.8172,118.0768,242.0349,0.003194,0.00050907,0.0,0 STARLINK-4040,1 53151U 22083V   23041.83276217  .00050907  00000-0  31940-2 0  9996,2 53151  53.2166 164.8172 0001230 118.0768 242.0349 15.08836570 31849,6917.891,95.438,540.607,538.905,0.0
53151.0,STARLINK-4040,PAYLOAD,2023-02-11 00:45:20,15.08812328,0.0001152,53.2167,163.926,173.9492,186.1514,0.0006255,9.673e-05,0.0,0 STARLINK-4040,1 53151U 22083V   23042.03148575  .00009673  00000-0  62550-3 0  9990,2 53151  53.2167 163.9260 0001152 173.9492 186.1514 15.08812328 32506,6917.965,95.439,540.627,539.033,0.0
